[
  {
    "OBJECT_NAME": "STARLINK-30772",
    "OBJECT_ID": "23162T",
    "EPOCH": "2025-11-11T06:59:43.827072",
    "MEAN_MOTION": 15.02555256,
    "ECCENTRICITY": 0.0001503,
    "INCLINATION": 43.0041,
    "RA_OF_ASC_NODE": 56.9465,
    "ARG_OF_PERICENTER": 270.2706,
    "MEAN_ANOMALY": 89.7964,
    "EPHEMERIS_TYPE": 0,
    "CLASSIFICATION_TYPE": "U",
    "NORAD_CAT_ID": 58135,
    "ELEMENT_SET_NO": 999,
    "REV_AT_EPOCH": 11448,
    "BSTAR": 0.00043108999999999997,
    "MEAN_MOTION_DOT": 5.627e-05,
    "MEAN_MOTION_DDOT": 0.0,
    "TLE_LINE1": "1 58135U 23162T   25315.29147948  .00005627  00000+0  43109-3 0  9995",
    "TLE_LINE2": "2 58135  43.0041  56.9465 0001503 270.2706  89.7964 15.02555256114481",
    "COMMENT": "Grouped by shell and plane from TLE"
  },
  {
    "OBJECT_NAME": "STARLINK-30776",
    "OBJECT_ID": "23162U",
    "EPOCH": "2025-11-11T06:46:56.856000",
    "MEAN_MOTION": 15.02542781,
    "ECCENTRICITY": 0.0001349,
    "INCLINATION": 43.0017,
    "RA_OF_ASC_NODE": 56.8666,
    "ARG_OF_PERICENTER": 274.0286,
    "MEAN_ANOMALY": 86.0402,
    "EPHEMERIS_TYPE": 0,
    "CLASSIFICATION_TYPE": "U",
    "NORAD_CAT_ID": 58136,
    "ELEMENT_SET_NO": 999,
    "REV_AT_EPOCH": 11448,
    "BSTAR": 9.422300000000001e-05,
    "MEAN_MOTION_DOT": 1.07e-05,
    "MEAN_MOTION_DDOT": 0.0,
    "TLE_LINE1": "1 58136U 23162U   25315.28260250  .00001070  00000+0  94223-4 0  9999",
    "TLE_LINE2": "2 58136  43.0017  56.8666 0001349 274.0286  86.0402 15.02542781114486",
    "COMMENT": "Grouped by shell and plane from TLE"
  },
  {
    "OBJECT_NAME": "STARLINK-30782",
    "OBJECT_ID": "23162V",
    "EPOCH": "2025-11-11T06:50:08.487744",
    "MEAN_MOTION": 15.02544425,
    "ECCENTRICITY": 0.0001319,
    "INCLINATION": 43.0056,
    "RA_OF_ASC_NODE": 56.8986,
    "ARG_OF_PERICENTER": 270.5941,
    "MEAN_ANOMALY": 89.475,
    "EPHEMERIS_TYPE": 0,
    "CLASSIFICATION_TYPE": "U",
    "NORAD_CAT_ID": 58137,
    "ELEMENT_SET_NO": 999,
    "REV_AT_EPOCH": 11448,
    "BSTAR": 0.00019841000000000002,
    "MEAN_MOTION_DOT": 2.478e-05,
    "MEAN_MOTION_DDOT": 0.0,
    "TLE_LINE1": "1 58137U 23162V   25315.28482046  .00002478  00000+0  19841-3 0  9994",
    "TLE_LINE2": "2 58137  43.0056  56.8986 0001319 270.5941  89.4750 15.02544425114481",
    "COMMENT": "Grouped by shell and plane from TLE"
  },
  {
    "OBJECT_NAME": "STARLINK-30769",
    "OBJECT_ID": "23162W",
    "EPOCH": "2025-11-11T06:40:33.163104",
    "MEAN_MOTION": 15.02542673,
    "ECCENTRICITY": 0.0001305,
    "INCLINATION": 43.0054,
    "RA_OF_ASC_NODE": 56.8518,
    "ARG_OF_PERICENTER": 267.469,
    "MEAN_ANOMALY": 92.6003,
    "EPHEMERIS_TYPE": 0,
    "CLASSIFICATION_TYPE": "U",
    "NORAD_CAT_ID": 58138,
    "ELEMENT_SET_NO": 999,
    "REV_AT_EPOCH": 11448,
    "BSTAR": 0.00020087,
    "MEAN_MOTION_DOT": 2.511e-05,
    "MEAN_MOTION_DDOT": 0.0,
    "TLE_LINE1": "1 58138U 23162W   25315.27816161  .00002511  00000+0  20087-3 0  9995",
    "TLE_LINE2": "2 58138  43.0054  56.8518 0001305 267.4690  92.6003 15.02542673114482",
    "COMMENT": "Grouped by shell and plane from TLE"
  },
  {
    "OBJECT_NAME": "STARLINK-30775",
    "OBJECT_ID": "23162X",
    "EPOCH": "2025-11-11T06:45:21.166272",
    "MEAN_MOTION": 15.02539004,
    "ECCENTRICITY": 0.0001122,
    "INCLINATION": 43.0063,
    "RA_OF_ASC_NODE": 56.8746,
    "ARG_OF_PERICENTER": 278.0262,
    "MEAN_ANOMALY": 82.0453,
    "EPHEMERIS_TYPE": 0,
    "CLASSIFICATION_TYPE": "U",
    "NORAD_CAT_ID": 58139,
    "ELEMENT_SET_NO": 999,
    "REV_AT_EPOCH": 11448,
    "BSTAR": 8.499100000000001e-05,
    "MEAN_MOTION_DOT": 9.45e-06,
    "MEAN_MOTION_DDOT": 0.0,
    "TLE_LINE1": "1 58139U 23162X   25315.28149498  .00000945  00000+0  84991-4 0  9993",
    "TLE_LINE2": "2 58139  43.0063  56.8746 0001122 278.0262  82.0453 15.02539004114482",
    "COMMENT": "Grouped by shell and plane from TLE"
  },
  {
    "OBJECT_NAME": "STARLINK-30780",
    "OBJECT_ID": "23162Y",
    "EPOCH": "2025-11-11T06:35:45.476160",
    "MEAN_MOTION": 15.02538455,
    "ECCENTRICITY": 6.75e-05,
    "INCLINATION": 43.0008,
    "RA_OF_ASC_NODE": 56.8203,
    "ARG_OF_PERICENTER": 332.2656,
    "MEAN_ANOMALY": 27.815,
    "EPHEMERIS_TYPE": 0,
    "CLASSIFICATION_TYPE": "U",
    "NORAD_CAT_ID": 58140,
    "ELEMENT_SET_NO": 999,
    "REV_AT_EPOCH": 11448,
    "BSTAR": 6.9608e-05,
    "MEAN_MOTION_DOT": 7.37e-06,
    "MEAN_MOTION_DDOT": 0.0,
    "TLE_LINE1": "1 58140U 23162Y   25315.27483190  .00000737  00000+0  69608-4 0  9991",
    "TLE_LINE2": "2 58140  43.0008  56.8203 0000675 332.2656  27.8150 15.02538455114483",
    "COMMENT": "Grouped by shell and plane from TLE"
  },
  {
    "OBJECT_NAME": "STARLINK-34051",
    "OBJECT_ID": "25102A",
    "EPOCH": "2025-11-11T06:24:57.308544",
    "MEAN_MOTION": 14.98325244,
    "ECCENTRICITY": 0.0003303,
    "INCLINATION": 70.003,
    "RA_OF_ASC_NODE": 53.0456,
    "ARG_OF_PERICENTER": 274.2066,
    "MEAN_ANOMALY": 85.8716,
    "EPHEMERIS_TYPE": 0,
    "CLASSIFICATION_TYPE": "U",
    "NORAD_CAT_ID": 64022,
    "ELEMENT_SET_NO": 999,
    "REV_AT_EPOCH": 2821,
    "BSTAR": 0.0013838000000000001,
    "MEAN_MOTION_DOT": 0.00016455,
    "MEAN_MOTION_DDOT": 0.0,
    "TLE_LINE1": "1 64022U 25102A   25315.26732996  .00016455  00000+0  13838-2 0  9999",
    "TLE_LINE2": "2 64022  70.0030  53.0456 0003303 274.2066  85.8716 14.98325244 28215",
    "COMMENT": "Grouped by shell and plane from TLE"
  },
  {
    "OBJECT_NAME": "STARLINK-34184",
    "OBJECT_ID": "25102B",
    "EPOCH": "2025-11-11T06:48:44.489664",
    "MEAN_MOTION": 14.98349282,
    "ECCENTRICITY": 0.00031,
    "INCLINATION": 70.0019,
    "RA_OF_ASC_NODE": 53.1031,
    "ARG_OF_PERICENTER": 271.836,
    "MEAN_ANOMALY": 88.2444,
    "EPHEMERIS_TYPE": 0,
    "CLASSIFICATION_TYPE": "U",
    "NORAD_CAT_ID": 64023,
    "ELEMENT_SET_NO": 999,
    "REV_AT_EPOCH": 2822,
    "BSTAR": 0.0010735,
    "MEAN_MOTION_DOT": 0.00012746,
    "MEAN_MOTION_DDOT": 0.0,
    "TLE_LINE1": "1 64023U 25102B   25315.28384826  .00012746  00000+0  10735-2 0  9999",
    "TLE_LINE2": "2 64023  70.0019  53.1031 0003100 271.8360  88.2444 14.98349282 28222",
    "COMMENT": "Grouped by shell and plane from TLE"
  },
  {
    "OBJECT_NAME": "STARLINK-34087",
    "OBJECT_ID": "25102C",
    "EPOCH": "2025-11-11T07:36:48.579552",
    "MEAN_MOTION": 14.98340477,
    "ECCENTRICITY": 0.0003193,
    "INCLINATION": 70.002,
    "RA_OF_ASC_NODE": 52.8179,
    "ARG_OF_PERICENTER": 272.9809,
    "MEAN_ANOMALY": 87.0984,
    "EPHEMERIS_TYPE": 0,
    "CLASSIFICATION_TYPE": "U",
    "NORAD_CAT_ID": 64024,
    "ELEMENT_SET_NO": 999,
    "REV_AT_EPOCH": 2811,
    "BSTAR": 0.00038812000000000004,
    "MEAN_MOTION_DOT": 4.542e-05,
    "MEAN_MOTION_DDOT": 0.0,
    "TLE_LINE1": "1 64024U 25102C   25315.31722893  .00004542  00000+0  38812-3 0  9996",
    "TLE_LINE2": "2 64024  70.0020  52.8179 0003193 272.9809  87.0984 14.98340477 28117",
    "COMMENT": "Grouped by shell and plane from TLE"
  },
  {
    "OBJECT_NAME": "STARLINK-34088",
    "OBJECT_ID": "25102D",
    "EPOCH": "2025-11-11T07:01:01.336512",
    "MEAN_MOTION": 14.98345315,
    "ECCENTRICITY": 0.0002801,
    "INCLINATION": 70.0029,
    "RA_OF_ASC_NODE": 53.1258,
    "ARG_OF_PERICENTER": 262.5177,
    "MEAN_ANOMALY": 97.5664,
    "EPHEMERIS_TYPE": 0,
    "CLASSIFICATION_TYPE": "U",
    "NORAD_CAT_ID": 64025,
    "ELEMENT_SET_NO": 999,
    "REV_AT_EPOCH": 2822,
    "BSTAR": 0.0009306799999999999,
    "MEAN_MOTION_DOT": 0.00011034,
    "MEAN_MOTION_DDOT": 0.0,
    "TLE_LINE1": "1 64025U 25102D   25315.29237658  .00011034  00000+0  93068-3 0  9992",
    "TLE_LINE2": "2 64025  70.0029  53.1258 0002801 262.5177  97.5664 14.98345315 28226",
    "COMMENT": "Grouped by shell and plane from TLE"
  },
  {
    "OBJECT_NAME": "STARLINK-33992",
    "OBJECT_ID": "25102E",
    "EPOCH": "2025-11-11T07:12:48.244896",
    "MEAN_MOTION": 14.98350611,
    "ECCENTRICITY": 0.0002501,
    "INCLINATION": 70.0036,
    "RA_OF_ASC_NODE": 53.1632,
    "ARG_OF_PERICENTER": 269.7621,
    "MEAN_ANOMALY": 90.3252,
    "EPHEMERIS_TYPE": 0,
    "CLASSIFICATION_TYPE": "U",
    "NORAD_CAT_ID": 64026,
    "ELEMENT_SET_NO": 999,
    "REV_AT_EPOCH": 2830,
    "BSTAR": 0.0007616500000000001,
    "MEAN_MOTION_DOT": 9.011e-05,
    "MEAN_MOTION_DDOT": 0.0,
    "TLE_LINE1": "1 64026U 25102E   25315.30055839  .00009011  00000+0  76165-3 0  9995",
    "TLE_LINE2": "2 64026  70.0036  53.1632 0002501 269.7621  90.3252 14.98350611 28309",
    "COMMENT": "Grouped by shell and plane from TLE"
  },
  {
    "OBJECT_NAME": "STARLINK-33967",
    "OBJECT_ID": "25102F",
    "EPOCH": "2025-11-11T06:24:43.151904",
    "MEAN_MOTION": 14.98343372,
    "ECCENTRICITY": 0.0003523,
    "INCLINATION": 70.0021,
    "RA_OF_ASC_NODE": 53.0433,
    "ARG_OF_PERICENTER": 266.8265,
    "MEAN_ANOMALY": 93.2491,
    "EPHEMERIS_TYPE": 0,
    "CLASSIFICATION_TYPE": "U",
    "NORAD_CAT_ID": 64027,
    "ELEMENT_SET_NO": 999,
    "REV_AT_EPOCH": 2815,
    "BSTAR": 0.00059636,
    "MEAN_MOTION_DOT": 7.032e-05,
    "MEAN_MOTION_DDOT": 0.0,
    "TLE_LINE1": "1 64027U 25102F   25315.26716611  .00007032  00000+0  59636-3 0  9998",
    "TLE_LINE2": "2 64027  70.0021  53.0433 0003523 266.8265  93.2491 14.98343372 28155",
    "COMMENT": "Grouped by shell and plane from TLE"
  },
  {
    "OBJECT_NAME": "STARLINK-33953",
    "OBJECT_ID": "25102G",
    "EPOCH": "2025-11-11T07:18:46.654560",
    "MEAN_MOTION": 14.98349335,
    "ECCENTRICITY": 0.0003214,
    "INCLINATION": 70.0017,
    "RA_OF_ASC_NODE": 52.7713,
    "ARG_OF_PERICENTER": 268.5382,
    "MEAN_ANOMALY": 91.5408,
    "EPHEMERIS_TYPE": 0,
    "CLASSIFICATION_TYPE": "U",
    "NORAD_CAT_ID": 64028,
    "ELEMENT_SET_NO": 999,
    "REV_AT_EPOCH": 2832,
    "BSTAR": 0.0007614400000000001,
    "MEAN_MOTION_DOT": 9.009e-05,
    "MEAN_MOTION_DDOT": 0.0,
    "TLE_LINE1": "1 64028U 25102G   25315.30470665  .00009009  00000+0  76144-3 0  9999",
    "TLE_LINE2": "2 64028  70.0017  52.7713 0003214 268.5382  91.5408 14.98349335 28327",
    "COMMENT": "Grouped by shell and plane from TLE"
  }
]